STARLINK-30327
1 57707U 23129K   26090.02749884  .00105452  00000+0  35935-2 0  9995
2 57707  43.0005 324.4746 0024401 217.8561 142.0575 15.29020755144190
